{
    "links": {
        "self": "http://www.neowsapp.com/rest/v1/neo/3843052?api_key=iIulBulltgU6a56xZRHN4H3l9WmuAYTsLGpBGhQ2"
    },
    "id": "3843052",
    "neo_reference_id": "3843052",
    "name": "(2019 MJ2)",
    "designation": "2019 MJ2",
    "nasa_jpl_url": "http://ssd.jpl.nasa.gov/sbdb.cgi?sstr=3843052",
    "absolute_magnitude_h": 25.3,
    "estimated_diameter": {
        "kilometers": {
            "estimated_diameter_min": 0.0231502122,
            "estimated_diameter_max": 0.0517654482
        },
        "meters": {
            "estimated_diameter_min": 23.150212221,
            "estimated_diameter_max": 51.7654482198
        },
        "miles": {
            "estimated_diameter_min": 0.0143848705,
            "estimated_diameter_max": 0.0321655483
        },
        "feet": {
            "estimated_diameter_min": 75.9521422633,
            "estimated_diameter_max": 169.8341531374
        }
    },
    "is_potentially_hazardous_asteroid": false,
    "close_approach_data": [
        {
            "close_approach_date": "2013-04-22",
            "close_approach_date_full": "2013-Apr-22 06:42",
            "epoch_date_close_approach": 1366612920000,
            "relative_velocity": {
                "kilometers_per_second": "6.3583414922",
                "kilometers_per_hour": "22890.0293718359",
                "miles_per_hour": "14222.9740838499"
            },
            "miss_distance": {
                "astronomical": "1.3276694126",
                "lunar": "516.4634015014",
                "kilometers": "198616516.189111162",
                "miles": "123414580.3497795556"
            },
            "orbiting_body": "Juptr"
        },
        {
            "close_approach_date": "2019-07-02",
            "close_approach_date_full": "2019-Jul-02 05:28",
            "epoch_date_close_approach": 1562045280000,
            "relative_velocity": {
                "kilometers_per_second": "9.2141895907",
                "kilometers_per_hour": "33171.0825266483",
                "miles_per_hour": "20611.2206955165"
            },
            "miss_distance": {
                "astronomical": "0.0464309487",
                "lunar": "18.0616390443",
                "kilometers": "6945971.027599269",
                "miles": "4316026.2597531522"
            },
            "orbiting_body": "Earth"
        }
    ],
    "orbital_data": {
        "orbit_id": "3",
        "orbit_determination_date": "2019-07-05 06:18:20",
        "first_observation_date": "2019-06-29",
        "last_observation_date": "2019-07-05",
        "data_arc_in_days": 6,
        "observations_used": 20,
        "orbit_uncertainty": "8",
        "minimum_orbit_intersection": ".0297295",
        "jupiter_tisserand_invariant": "3.099",
        "epoch_osculation": "2458664.5",
        "eccentricity": ".6029753200352473",
        "semi_major_axis": "2.634127676605983",
        "inclination": "8.178740409639614",
        "ascending_node_longitude": "271.902542607824",
        "orbital_period": "1561.541961676389",
        "perihelion_distance": "1.045813697790788",
        "perihelion_argument": "357.3641982247976",
        "aphelion_distance": "4.222441655421179",
        "perihelion_time": "2458658.881022751669",
        "mean_anomaly": "1.295406629500724",
        "mean_motion": ".2305413551701954",
        "equinox": "J2000",
        "orbit_class": {
            "orbit_class_type": "AMO",
            "orbit_class_description": "Near-Earth asteroid orbits similar to that of 1221 Amor",
            "orbit_class_range": "1.017 AU < q (perihelion) < 1.3 AU"
        }
    },
    "is_sentry_object": false
}